QIANFAN-60              
1 62790U 25016F   25327.74552806  .00000061  00000+0  75430-4 0  9993
2 62790  88.9746 105.0392 0016612  43.5728 316.6732 13.50977541 44663
QIANFAN-61              
1 62791U 25016G   25327.77826652  .00000107  00000+0  14628-3 0  9992
2 62791  88.9812 105.1857 0015552  43.1973 317.0395 13.50974571 44687
QIANFAN-62              
1 62792U 25016H   25327.78242213  .00000118  00000+0  16419-3 0  9991
2 62792  88.9759 105.0640 0016929  43.0966 317.1508 13.50984518 44675
QIANFAN-63              
1 62793U 25016J   25327.80714060  .00000112  00000+0  15482-3 0  9992
2 62793  88.9766 105.0118 0017107  48.1223 312.1385 13.50977689 44719
QIANFAN-64              
1 62794U 25016K   25327.77415535  .00000106  00000+0  14513-3 0  9991
2 62794  88.9752 104.9917 0014895  42.1605 318.0689 13.50979468 44707
QIANFAN-65              
1 62795U 25016L   25327.77009509  .00000102  00000+0  13936-3 0  9996
2 62795  88.9748 105.0189 0014766  43.9635 316.2688 13.50978464 44686
QIANFAN-66              
1 62796U 25016M   25327.79887794  .00000112  00000+0  15419-3 0  9998
2 62796  88.9768 104.9823 0015759  39.2185 321.0104 13.50982521 44735
QIANFAN-67              
1 62797U 25016N   25327.80308822  .00000106  00000+0  14609-3 0  9994
2 62797  88.9758 105.0093 0015904  45.7548 314.4906 13.50975384 44705
QIANFAN-68              
1 62798U 25016P   25327.72075184  .00000117  00000+0  16211-3 0  9991
2 62798  88.9762 105.0624 0015917  44.2994 315.9428 13.50977707 44676
QIANFAN-69              
1 62799U 25016Q   25327.81135233  .00000106  00000+0  14572-3 0  9990
2 62799  88.9741 104.9264 0016690  44.8293 315.4203 13.50980718 44727
QIANFAN-70              
1 62800U 25016R   25327.75358184  .00000110  00000+0  15231-3 0  9996
2 62800  88.9761 105.0668 0016053  35.9781 324.2447 13.50971225 44673
QIANFAN-71              
1 62801U 25016S   25327.67545755  .00000106  00000+0  14470-3 0  9999
2 62801  88.9755 105.0556 0016705  48.5514 311.7069 13.50978570 44661
QIANFAN-72              
1 62802U 25016T   25327.76599867  .00000103  00000+0  14023-3 0  9994
2 62802  88.9746 105.0614 0020112  54.3592 305.9429 13.50978551 44669
QIANFAN-73              
1 63159U 25046A   25327.71886296  .00000031  00000+0  29456-4 0  9990
2 63159  88.9750 321.9935 0015034 171.7800 188.3600 13.50973983 44846
QIANFAN-74              
1 63160U 25046B   25327.70231053  .00000023  00000+0  16442-4 0  9998
2 63160  88.9751 321.8837 0002015  85.0169 275.1212 13.50976109 44903
QIANFAN-75              
1 63161U 25046C   25327.68963777  .00000098  00000+0  13349-3 0  9995
2 63161  88.9753 322.1184 0016029 175.4308 184.6993 13.50989308 44774
QIANFAN-76              
1 63162U 25046D   25327.68602196 -.00000110  00000+0 -18951-3 0  9992
2 63162  88.9748 322.0998 0013570 175.0750 185.0537 13.50965324 44788
QIANFAN-77              
1 63163U 25046E   25327.69221882  .00000157  00000+0  10404-3 0  9997
2 63163  88.9753 320.2620 0016167 134.3743 225.8761 13.96076383 45794
QIANFAN-78              
1 63164U 25046F   25327.72706753  .00000006  00000+0 -10041-4 0  9999
2 63164  88.9751 321.9595 0014879 177.7117 182.4105 13.50974646 44862
QIANFAN-79              
1 63165U 25046G   25327.75574998  .00000033  00000+0  32399-4 0  9996
2 63165  88.9755 322.0633 0014637 175.7796 184.3481 13.50975624 44815
QIANFAN-80              
1 63166U 25046H   25327.69818749  .00000068  00000+0  87044-4 0  9990
2 63166  88.9752 321.7765 0013464 179.7840 180.3319 13.50979908 44967
QIANFAN-81              
1 63167U 25046J   25327.75098402  .00000101  00000+0  13749-3 0  9992
2 63167  88.9752 321.8392 0014873 168.5633 191.5859 13.50996904 44920
QIANFAN-82              
1 63168U 25046K   25327.71061507  .00000070  00000+0  90414-4 0  9995
2 63168  88.9752 321.8872 0012759 175.4973 184.6295 13.50976652 44902
QIANFAN-83              
1 63169U 25046L   25327.74435389  .00000048  00000+0  45945-4 0  9996
2 63169  88.9753 321.6973 0014490 162.4347 197.7314 13.61969808 45016
QIANFAN-84              
1 63170U 25046M   25327.73857458 -.00000035  00000+0 -72769-4 0  9994
2 63170  88.9748 322.0172 0015808 173.5437 186.5921 13.50985708 44839
QIANFAN-85              
1 63171U 25046N   25327.73519683  .00000074  00000+0  95558-4 0  9992
2 63171  88.9752 321.8892 0013124 174.5000 185.6298 13.50981555 44908
QIANFAN-86              
1 63172U 25046P   25327.74352080  .00000072  00000+0  92807-4 0  9992
2 63172  88.9754 321.7500 0010902 177.2465 182.8748 13.50978363 44982
QIANFAN-87              
1 63173U 25046Q   25327.71481039  .00000020  00000+0  11713-4 0  9997
2 63173  88.9750 321.8655 0011697 172.9198 187.2121 13.50971013 44910
QIANFAN-88              
1 63174U 25046R   25327.73122084  .00000065  00000+0  82694-4 0  9997
2 63174  88.9753 321.8178 0011839 181.1976 178.9148 13.50975959 44940
QIANFAN-89              
1 63175U 25046S   25327.69397611  .00000083  00000+0  10908-3 0  9991
2 63175  88.9752 322.0107 0016456 174.2197 185.9147 13.50978792 44836
QIANFAN-90              
1 63176U 25046T   25327.72272990  .00000008  00000+0 -60259-5 0  9992
2 63176  88.9753 321.9801 0013484 170.8074 189.3327 13.50974576 44857
QIANFAN-91              
1 66033U 25233A   25326.95917065  .00000612  00000+0  32575-3 0  9996
2 66033  88.9963  64.3257 0018063  97.5978 262.7260 14.12077200  5210
QIANFAN-92              
1 66034U 25233B   25327.45702501  .00000449  00000+0  24572-3 0  9996
2 66034  88.9962  64.2702 0016991  97.9363 262.3751 14.10199830  5284
QIANFAN-93              
1 66035U 25233C   25327.73253692  .00000190  00000+0  99854-4 0  9999
2 66035  88.9970  64.2281 0018381  94.7379 265.5905 14.09986188  5322
QIANFAN-94              
1 66036U 25233D   25327.59524641  .00000385  00000+0  21049-3 0  9995
2 66036  88.9964  64.2535 0016602  96.5279 263.7796 14.09916140  5308
QIANFAN-95              
1 66037U 25233E   25327.59809736  .00000656  00000+0  26752-3 0  9994
2 66037  88.9965  64.2356 0016392  98.9459 261.3591 14.26192546  5316
QIANFAN-96              
1 66038U 25233F   25327.60226874  .00000383  00000+0  21790-3 0  9997
2 66038  88.9976  64.2564 0018000 101.5840 258.7365 14.07739056  5303
QIANFAN-97              
1 66039U 25233G   25327.59520216  .00000384  00000+0  21310-3 0  9992
2 66039  89.0040  64.2426 0018949  92.5901 267.7453 14.09011606  5308
QIANFAN-98              
1 66040U 25233H   25327.67290315  .00000589  00000+0  26396-3 0  9993
2 66040  88.9967  64.2259 0016062  97.9942 262.3072 14.21210686  5321
QIANFAN-99              
1 66041U 25233J   25327.80703406  .00000384  00000+0  21386-3 0  9996
2 66041  88.9964  64.2296 0017316  95.6270 264.6890 14.08873684  5334
QIANFAN-100             
1 66042U 25233K   25327.60189733  .00000589  00000+0  26154-3 0  9991
2 66042  88.9963  64.2359 0016756 100.7795 259.5283 14.21682185  5317
QIANFAN-101             
1 66043U 25233L   25327.72893138  .00000498  00000+0  19990-3 0  9995
2 66043  88.9965  64.2181 0016974  97.2740 263.0384 14.26659084  5336
QIANFAN-102             
1 66044U 25233M   25327.58115691  .00000387  00000+0  20139-3 0  9995
2 66044  88.9964  64.2518 0017328  98.5895 261.7255 14.12575950  5302
QIANFAN-103             
1 66045U 25233N   25327.59643253  .00000294  00000+0  16322-3 0  9993
2 66045  88.9969  64.2541 0017114  97.3494 262.9636 14.08415525  5301
QIANFAN-104             
1 66046U 25233P   25327.58132406  .00000465  00000+0  24327-3 0  9990
2 66046  88.9965  64.2517 0017055  99.5352 260.7762 14.12631873  5309
QIANFAN-105             
1 66047U 25233Q   25327.58399800  .00000197  00000+0  10014-3 0  9994
2 66047  88.9965  64.2526 0017162  97.6498 262.6637 14.11851396  5304
QIANFAN-106             
1 66048U 25233R   25327.73282253  .00000186  00000+0  99215-4 0  9994
2 66048  88.9965  64.2339 0017791  96.7874 263.5335 14.08827682  5327
QIANFAN-107             
1 66049U 25233S   25327.58128730  .00000336  00000+0  17557-3 0  9992
2 66049  88.9970  64.2537 0019421  94.8049 265.5354 14.12057511  5301
QIANFAN-108             
1 66050U 25233T   25327.72765341  .00000255  00000+0  13669-3 0  9995
2 66050  88.9964  64.2349 0017306  98.2648 262.0500 14.09906211  5323
